{
    "links": {
        "self": "http://www.neowsapp.com/rest/v1/neo/3427441?api_key=iIulBulltgU6a56xZRHN4H3l9WmuAYTsLGpBGhQ2"
    },
    "id": "3427441",
    "neo_reference_id": "3427441",
    "name": "(2008 SC)",
    "designation": "2008 SC",
    "nasa_jpl_url": "http://ssd.jpl.nasa.gov/sbdb.cgi?sstr=3427441",
    "absolute_magnitude_h": 21.7,
    "estimated_diameter": {
        "kilometers": {
            "estimated_diameter_min": 0.1214940408,
            "estimated_diameter_max": 0.2716689341
        },
        "meters": {
            "estimated_diameter_min": 121.4940407996,
            "estimated_diameter_max": 271.6689340891
        },
        "miles": {
            "estimated_diameter_min": 0.0754928736,
            "estimated_diameter_max": 0.1688071972
        },
        "feet": {
            "estimated_diameter_min": 398.6025088171,
            "estimated_diameter_max": 891.3023057169
        }
    },
    "is_potentially_hazardous_asteroid": true,
    "close_approach_data": [
        {
            "close_approach_date": "1902-09-23",
            "close_approach_date_full": "1902-Sep-23 05:51",
            "epoch_date_close_approach": -2122999740000,
            "relative_velocity": {
                "kilometers_per_second": "23.8632807518",
                "kilometers_per_hour": "85907.8107066582",
                "miles_per_hour": "53379.7727138121"
            },
            "miss_distance": {
                "astronomical": "0.0392702935",
                "lunar": "15.2761441715",
                "kilometers": "5874752.261874845",
                "miles": "3650401.784149061"
            },
            "orbiting_body": "Earth"
        },
        {
            "close_approach_date": "2006-07-01",
            "close_approach_date_full": "2006-Jul-01 18:34",
            "epoch_date_close_approach": 1151778840000,
            "relative_velocity": {
                "kilometers_per_second": "22.8233871797",
                "kilometers_per_hour": "82164.1938467908",
                "miles_per_hour": "51053.6347821906"
            },
            "miss_distance": {
                "astronomical": "0.1347185681",
                "lunar": "52.4055229909",
                "kilometers": "20153610.837209947",
                "miles": "12522873.0809013886"
            },
            "orbiting_body": "Venus"
        },
        {
            "close_approach_date": "2008-09-24",
            "close_approach_date_full": "2008-Sep-24 13:38",
            "epoch_date_close_approach": 1222263480000,
            "relative_velocity": {
                "kilometers_per_second": "22.8912234477",
                "kilometers_per_hour": "82408.4044116073",
                "miles_per_hour": "51205.3777300901"
            },
            "miss_distance": {
                "astronomical": "0.0466344662",
                "lunar": "18.1408073518",
                "kilometers": "6976416.812106994",
                "miles": "4334944.3930007572"
            },
            "orbiting_body": "Earth"
        },
        {
            "close_approach_date": "2012-06-01",
            "close_approach_date_full": "2012-Jun-01 18:34",
            "epoch_date_close_approach": 1338575640000,
            "relative_velocity": {
                "kilometers_per_second": "21.6071304035",
                "kilometers_per_hour": "77785.6694527487",
                "miles_per_hour": "48332.9899996815"
            },
            "miss_distance": {
                "astronomical": "0.2820526552",
                "lunar": "109.7184828728",
                "kilometers": "42194476.445764424",
                "miles": "26218431.8985560912"
            },
            "orbiting_body": "Earth"
        }
    ],
    "orbital_data": {
        "orbit_id": "8",
        "orbit_determination_date": "2017-04-06 09:02:57",
        "first_observation_date": "2008-09-19",
        "last_observation_date": "2008-09-24",
        "data_arc_in_days": 5,
        "observations_used": 18,
        "orbit_uncertainty": "8",
        "minimum_orbit_intersection": ".0344166",
        "jupiter_tisserand_invariant": "5.393",
        "epoch_osculation": "2454730.5",
        "eccentricity": ".7017743761016078",
        "semi_major_axis": "1.091336717001045",
        "inclination": "16.8124742362258",
        "ascending_node_longitude": "6.873614719868714",
        "orbital_period": "416.4247917150861",
        "perihelion_distance": ".3254645733108599",
        "perihelion_argument": "122.5316731757728",
        "aphelion_distance": "1.857208860691231",
        "perihelion_time": "2454784.315795463601",
        "mean_anomaly": "313.4761456273918",
        "mean_motion": ".8645018432195281",
        "equinox": "J2000",
        "orbit_class": {
            "orbit_class_type": "APO",
            "orbit_class_description": "Near-Earth asteroid orbits which cross the Earth’s orbit similar to that of 1862 Apollo",
            "orbit_class_range": "a (semi-major axis) > 1.0 AU; q (perihelion) < 1.017 AU"
        }
    },
    "is_sentry_object": false
}